{
  "type": "FeatureCollection",
  "features": [
    {
      "type": "Feature",
      "properties": {
        "norad_id": 66568,
        "name": "STARLINK-35803",
        "group": "last-30-days",
        "lat": 8.33276022497557,
        "lon": -143.39661571943947,
        "alt_km": 412.5171690328816,
        "timestamp": "2025-12-25T14:48:23.568041+00:00",
        "meta_object_name": "STARLINK-35803",
        "meta_object_id": "2025-268M",
        "meta_epoch": "2025-12-25T08:00:01.000224",
        "meta_mean_motion": 15.5213122,
        "meta_eccentricity": 0.00012212,
        "meta_inclination": 43.0004,
        "meta_ra_of_asc_node": 47.3082,
        "meta_arg_of_pericenter": 269.4398,
        "meta_mean_anomaly": 112.2497,
        "meta_ephemeris_type": 0,
        "meta_classification_type": "U",
        "meta_norad_cat_id": 66568,
        "meta_element_set_no": 999,
        "meta_rev_at_epoch": 608,
        "meta_bstar": -0.032005427,
        "meta_mean_motion_dot": -0.01765868,
        "meta_mean_motion_ddot": 0,
        "tle_line1": "1 66568U 25268M   25359.33334491 -.01765868  00000+0 -32005-1 0  9991",
        "tle_line2": "2 66568  43.0004  47.3082 0001221 269.4398 112.2497 15.52131220  6087"
      },
      "geometry": {
        "type": "Point",
        "coordinates": [
          -143.39661571943947,
          8.33276022497557
        ]
      }
    },
    {
      "type": "Feature",
      "properties": {
        "norad_id": 66569,
        "name": "STARLINK-35835",
        "group": "last-30-days",
        "lat": -11.64404888743472,
        "lon": -121.64873895002656,
        "alt_km": 412.8431143673306,
        "timestamp": "2025-12-25T14:48:23.568051+00:00",
        "meta_object_name": "STARLINK-35835",
        "meta_object_id": "2025-268N",
        "meta_epoch": "2025-12-25T08:00:01.000224",
        "meta_mean_motion": 15.52951939,
        "meta_eccentricity": 0.00013888,
        "meta_inclination": 43.0006,
        "meta_ra_of_asc_node": 47.2388,
        "meta_arg_of_pericenter": 276.8246,
        "meta_mean_anomaly": 133.6194,
        "meta_ephemeris_type": 0,
        "meta_classification_type": "U",
        "meta_norad_cat_id": 66569,
        "meta_element_set_no": 999,
        "meta_rev_at_epoch": 608,
        "meta_bstar": -0.036626974,
        "meta_mean_motion_dot": -0.02081861,
        "meta_mean_motion_ddot": 0,
        "tle_line1": "1 66569U 25268N   25359.33334491 -.02081861  00000+0 -36627-1 0  9991",
        "tle_line2": "2 66569  43.0006  47.2388 0001388 276.8246 133.6194 15.52951939  6084"
      },
      "geometry": {
        "type": "Point",
        "coordinates": [
          -121.64873895002656,
          -11.64404888743472
        ]
      }
    },
    {
      "type": "Feature",
      "properties": {
        "norad_id": 66570,
        "name": "STARLINK-35834",
        "group": "last-30-days",
        "lat": 34.7998614115454,
        "lon": 94.14924598335463,
        "alt_km": 450.19025718306875,
        "timestamp": "2025-12-25T14:48:23.568061+00:00",
        "meta_object_name": "STARLINK-35834",
        "meta_object_id": "2025-268P",
        "meta_epoch": "2025-12-25T08:00:01.000224",
        "meta_mean_motion": 15.38242179,
        "meta_eccentricity": 0.000108,
        "meta_inclination": 42.9996,
        "meta_ra_of_asc_node": 47.5441,
        "meta_arg_of_pericenter": 260.9938,
        "meta_mean_anomaly": 24.2156,
        "meta_ephemeris_type": 0,
        "meta_classification_type": "U",
        "meta_norad_cat_id": 66570,
        "meta_element_set_no": 999,
        "meta_rev_at_epoch": 608,
        "meta_bstar": -0.059098224,
        "meta_mean_motion_dot": -0.02022952,
        "meta_mean_motion_ddot": 0,
        "tle_line1": "1 66570U 25268P   25359.33334491 -.02022952  00000+0 -59098-1 0  9996",
        "tle_line2": "2 66570  42.9996  47.5441 0001080 260.9938  24.2156 15.38242179  6082"
      },
      "geometry": {
        "type": "Point",
        "coordinates": [
          94.14924598335463,
          34.7998614115454
        ]
      }
    },
    {
      "type": "Feature",
      "properties": {
        "norad_id": 66571,
        "name": "STARLINK-35836",
        "group": "last-30-days",
        "lat": 40.283035011421006,
        "lon": 111.32690577890399,
        "alt_km": 447.0024592178179,
        "timestamp": "2025-12-25T14:48:23.568070+00:00",
        "meta_object_name": "STARLINK-35836",
        "meta_object_id": "2025-268Q",
        "meta_epoch": "2025-12-25T08:00:01.000224",
        "meta_mean_motion": 15.39081705,
        "meta_eccentricity": 0.00011749,
        "meta_inclination": 42.9991,
        "meta_ra_of_asc_node": 47.5112,
        "meta_arg_of_pericenter": 258.9981,
        "meta_mean_anomaly": 40.0153,
        "meta_ephemeris_type": 0,
        "meta_classification_type": "U",
        "meta_norad_cat_id": 66571,
        "meta_element_set_no": 999,
        "meta_rev_at_epoch": 603,
        "meta_bstar": -0.057576002,
        "meta_mean_motion_dot": -0.02025986,
        "meta_mean_motion_ddot": 0,
        "tle_line1": "1 66571U 25268Q   25359.33334491 -.02025986  00000+0 -57576-1 0  9996",
        "tle_line2": "2 66571  42.9991  47.5112 0001174 258.9981  40.0153 15.39081705  6037"
      },
      "geometry": {
        "type": "Point",
        "coordinates": [
          111.32690577890399,
          40.283035011421006
        ]
      }
    },
    {
      "type": "Feature",
      "properties": {
        "norad_id": 66572,
        "name": "STARLINK-35870",
        "group": "last-30-days",
        "lat": 42.83596364699633,
        "lon": 141.57921595640707,
        "alt_km": 442.3258376504991,
        "timestamp": "2025-12-25T14:48:23.568079+00:00",
        "meta_object_name": "STARLINK-35870",
        "meta_object_id": "2025-268R",
        "meta_epoch": "2025-12-25T08:00:01.000224",
        "meta_mean_motion": 15.40545274,
        "meta_eccentricity": 0.00011845,
        "meta_inclination": 43.0004,
        "meta_ra_of_asc_node": 47.4604,
        "meta_arg_of_pericenter": 256.6064,
        "meta_mean_anomaly": 63.5933,
        "meta_ephemeris_type": 0,
        "meta_classification_type": "U",
        "meta_norad_cat_id": 66572,
        "meta_element_set_no": 999,
        "meta_rev_at_epoch": 603,
        "meta_bstar": -0.055821811,
        "meta_mean_motion_dot": -0.02058306,
        "meta_mean_motion_ddot": 0,
        "tle_line1": "1 66572U 25268R   25359.33334491 -.02058306  00000+0 -55822-1 0  9991",
        "tle_line2": "2 66572  43.0004  47.4604 0001184 256.6064  63.5933 15.40545274  6032"
      },
      "geometry": {
        "type": "Point",
        "coordinates": [
          141.57921595640707,
          42.83596364699633
        ]
      }
    },
    {
      "type": "Feature",
      "properties": {
        "norad_id": 66573,
        "name": "STARLINK-35650",
        "group": "last-30-days",
        "lat": 40.593837380826834,
        "lon": 158.92913367228618,
        "alt_km": 440.2150766925106,
        "timestamp": "2025-12-25T14:48:23.568088+00:00",
        "meta_object_name": "STARLINK-35650",
        "meta_object_id": "2025-268S",
        "meta_epoch": "2025-12-25T08:00:01.000224",
        "meta_mean_motion": 15.41397803,
        "meta_eccentricity": 0.0001283,
        "meta_inclination": 43,
        "meta_ra_of_asc_node": 47.429,
        "meta_arg_of_pericenter": 260.8517,
        "meta_mean_anomaly": 71.6136,
        "meta_ephemeris_type": 0,
        "meta_classification_type": "U",
        "meta_norad_cat_id": 66573,
        "meta_element_set_no": 999,
        "meta_rev_at_epoch": 609,
        "meta_bstar": -0.055084407,
        "meta_mean_motion_dot": -0.02086531,
        "meta_mean_motion_ddot": 0,
        "tle_line1": "1 66573U 25268S   25359.33334491 -.02086531  00000+0 -55084-1 0  9993",
        "tle_line2": "2 66573  43.0000  47.4290 0001283 260.8517  71.6136 15.41397803  6095"
      },
      "geometry": {
        "type": "Point",
        "coordinates": [
          158.92913367228618,
          40.593837380826834
        ]
      }
    },
    {
      "type": "Feature",
      "properties": {
        "norad_id": 66574,
        "name": "STARLINK-35812",
        "group": "last-30-days",
        "lat": 36.2104446790462,
        "lon": 173.97783719551032,
        "alt_km": 438.4220823771084,
        "timestamp": "2025-12-25T14:48:23.568099+00:00",
        "meta_object_name": "STARLINK-35812",
        "meta_object_id": "2025-268T",
        "meta_epoch": "2025-12-25T08:00:01.000224",
        "meta_mean_motion": 15.42224358,
        "meta_eccentricity": 0.00013479,
        "meta_inclination": 43.0006,
        "meta_ra_of_asc_node": 47.3997,
        "meta_arg_of_pericenter": 266.942,
        "meta_mean_anomaly": 77.2425,
        "meta_ephemeris_type": 0,
        "meta_classification_type": "U",
        "meta_norad_cat_id": 66574,
        "meta_element_set_no": 999,
        "meta_rev_at_epoch": 603,
        "meta_bstar": -0.053210985,
        "meta_mean_motion_dot": -0.02074252,
        "meta_mean_motion_ddot": 0,
        "tle_line1": "1 66574U 25268T   25359.33334491 -.02074252  00000+0 -53211-1 0  9991",
        "tle_line2": "2 66574  43.0006  47.3997 0001347 266.9420  77.2425 15.42224358  6038"
      },
      "geometry": {
        "type": "Point",
        "coordinates": [
          173.97783719551032,
          36.2104446790462
        ]
      }
    }
  ]
}